NORAD_CAT_ID,OBJECT_NAME,OBJECT_TYPE,EPOCH,MEAN_MOTION,ECCENTRICITY,INCLINATION,RA_OF_ASC_NODE,ARG_OF_PERICENTER,MEAN_ANOMALY,BSTAR,MEAN_MOTION_DOT,MEAN_MOTION_DDOT,TLE_LINE0,TLE_LINE1,TLE_LINE2,SEMIMAJOR_AXIS,PERIOD,APOGEE,PERIGEE,DECAYED
53793.0,STARLINK-4728,PAYLOAD,2023-05-01 21:36:40,15.08844682,2.02e-05,53.2166,275.1538,72.6805,287.4209,5.609e-05,6.05e-06,0.0,0 STARLINK-4728,1 53793U 22111W   23121.90046390  .00000605  00000-0  56090-4 0  9999,2 53793  53.2166 275.1538 0000202  72.6805 287.4209 15.08844682 35461,6917.866,95.437,539.871,539.591,0.0
53793.0,STARLINK-4728,PAYLOAD,2023-05-02 13:30:31,15.08844065,2.08e-05,53.2172,272.1792,135.1451,224.9558,5.4329e-05,5.77e-06,0.0,0 STARLINK-4728,1 53793U 22111W   23122.56286424  .00000577  00000-0  54329-4 0  9997,2 53793  53.2172 272.1792 0000208 135.1451 224.9558 15.08844065 36363,6917.868,95.437,539.877,539.589,0.0
53793.0,STARLINK-4728,PAYLOAD,2023-05-02 19:52:03,15.08853577,2.52e-05,53.2176,270.9902,67.6384,292.4635,0.00014001,1.942e-05,0.0,0 STARLINK-4728,1 53793U 22111W   23122.82781633  .00001942  00000-0  14001-3 0  9997,2 53793  53.2176 270.9902 0000252  67.6384 292.4635 15.08853577 36408,6917.839,95.437,539.878,539.53,0.0
53793.0,STARLINK-4728,PAYLOAD,2023-05-03 13:21:19,15.08833694,1.67e-05,53.2172,267.719,144.1702,215.9301,4.0346e-05,3.55e-06,0.0,0 STARLINK-4728,1 53793U 22111W   23123.55647412  .00000355  00000-0  40346-4 0  9993,2 53793  53.2172 267.7190 0000167 144.1702 215.9301 15.08833694 35718,6917.9,95.438,539.88,539.649,0.0
53793.0,STARLINK-4728,PAYLOAD,2023-05-03 14:56:42,15.08835434,1.85e-05,53.2162,267.4216,122.5668,237.5342,5.211e-06,-2.04e-06,0.0,0 STARLINK-4728,1 53793U 22111W   23123.62271034 -.00000204  00000-0  52110-5 0  9991,2 53793  53.2162 267.4216 0000185 122.5668 237.5342 15.08835434 36523,6917.894,95.438,539.887,539.631,0.0
53793.0,STARLINK-4728,PAYLOAD,2023-05-04 02:04:23,15.08840254,6.7e-06,53.2162,265.3404,114.9147,245.1852,2.2649e-05,7.3e-07,0.0,0 STARLINK-4728,1 53793U 22111W   23124.08638809  .00000073  00000-0  22649-4 0  9995,2 53793  53.2162 265.3404 0000067 114.9147 245.1852 15.08840254 35790,6917.88,95.438,539.791,539.698,0.0
53793.0,STARLINK-4728,PAYLOAD,2023-05-04 13:12:05,15.08847212,1.43e-05,53.216,263.2583,359.2574,0.8418,8.4958e-05,1.065e-05,0.0,0 STARLINK-4728,1 53793U 22111W   23124.55006466  .00001065  00000-0  84958-4 0  9998,2 53793  53.2160 263.2583 0000143 359.2574   0.8418 15.08847212 36668,6917.858,95.437,539.822,539.624,0.0
53793.0,STARLINK-4728,PAYLOAD,2023-05-04 19:33:38,15.08857976,6.8e-06,53.2163,262.0686,118.6194,241.4805,0.00089551,0.00014,0.0,0 STARLINK-4728,1 53793U 22111W   23124.81502405  .00014000  00000-0  89551-3 0  9997,2 53793  53.2163 262.0686 0000068 118.6194 241.4805 15.08857976 35900,6917.825,95.436,539.737,539.643,0.0
53793.0,STARLINK-4728,PAYLOAD,2023-05-05 09:52:06,15.08842316,2.26e-05,53.2165,259.3911,63.6472,296.4543,0.00020867,3.035e-05,0.0,0 STARLINK-4728,1 53793U 22111W   23125.41118701  .00003035  00000-0  20867-3 0  9997,2 53793  53.2165 259.3911 0000226  63.6472 296.4543 15.08842316 35996,6917.873,95.437,539.895,539.582,0.0
53793.0,STARLINK-4728,PAYLOAD,2023-05-05 16:13:38,15.08850935,1.5e-05,53.2158,258.203,107.7288,252.372,0.00039879,6.067e-05,0.0,0 STARLINK-4728,1 53793U 22111W   23125.67614485  .00006067  00000-0  39879-3 0  9996,2 53793  53.2158 258.2030 0000150 107.7288 252.3720 15.08850935 36837,6917.847,95.437,539.816,539.608,0.0
53793.0,STARLINK-4728,PAYLOAD,2023-05-06 14:29:03,15.08842336,1.02e-05,53.2155,254.0396,65.3798,294.7205,0.00027761,4.134e-05,0.0,0 STARLINK-4728,1 53793U 22111W   23126.60350793  .00004134  00000-0  27761-3 0  9999,2 53793  53.2155 254.0396 0000102  65.3798 294.7205 15.08842336 36974,6917.873,95.437,539.809,539.668,0.0
53793.0,STARLINK-4728,PAYLOAD,2023-05-07 01:36:45,15.08844424,3.41e-05,53.2153,251.9605,15.1866,344.9136,0.00027083,4.026e-05,0.0,0 STARLINK-4728,1 53793U 22111W   23127.06718824  .00004026  00000-0  27083-3 0  9990,2 53793  53.2153 251.9605 0000341  15.1866 344.9136 15.08844424 36246,6917.867,95.437,539.968,539.496,0.0
53793.0,STARLINK-4728,PAYLOAD,2023-05-07 12:44:27,15.08840172,3.18e-05,53.216,249.8756,27.827,332.2739,0.00015225,2.136e-05,0.0,0 STARLINK-4728,1 53793U 22111W   23127.53086978  .00002136  00000-0  15225-3 0  9995,2 53793  53.2160 249.8756 0000318  27.8270 332.2739 15.08840172 37112,6917.88,95.438,539.965,539.525,0.0
53793.0,STARLINK-4728,PAYLOAD,2023-05-07 15:55:13,15.08844999,2.65e-05,53.216,249.2801,48.9109,311.1906,0.00021418,3.123e-05,0.0,0 STARLINK-4728,1 53793U 22111W   23127.66334834  .00003123  00000-0  21418-3 0  9994,2 53793  53.2160 249.2801 0000265  48.9109 311.1906 15.08844999 37138,6917.865,95.437,539.913,539.547,0.0
53793.0,STARLINK-4728,PAYLOAD,2023-05-08 01:27:32,15.08843079,3.62e-05,53.2151,247.4992,13.6378,346.4624,0.00021435,3.126e-05,0.0,0 STARLINK-4728,1 53793U 22111W   23128.06078993  .00003126  00000-0  21435-3 0  9992,2 53793  53.2151 247.4992 0000362  13.6378 346.4624 15.08843079 36397,6917.871,95.437,539.986,539.486,0.0
53793.0,STARLINK-4728,PAYLOAD,2023-05-08 14:10:37,15.08840238,3.88e-05,53.2146,245.1207,26.3299,333.7713,9.4484e-05,1.217e-05,0.0,0 STARLINK-4728,1 53793U 22111W   23128.59071184  .00001217  00000-0  94484-4 0  9999,2 53793  53.2146 245.1207 0000388  26.3299 333.7713 15.08840238 37276,6917.88,95.438,540.013,539.476,0.0
53793.0,STARLINK-4728,PAYLOAD,2023-05-09 14:01:24,15.08842225,5.45e-05,53.2152,240.6595,28.8163,331.2859,7.1063e-05,8.44e-06,0.0,0 STARLINK-4728,1 53793U 22111W   23129.58431360  .00000844  00000-0  71063-4 0  9998,2 53793  53.2152 240.6595 0000545  28.8163 331.2859 15.08842225 37424,6917.874,95.437,540.116,539.362,0.0
53793.0,STARLINK-4728,PAYLOAD,2023-05-10 12:16:48,15.08837136,2.77e-05,53.2153,236.4959,83.5475,276.5549,9.9732e-05,1.3e-05,0.0,0 STARLINK-4728,1 53793U 22111W   23130.51167777  .00001300  00000-0  99732-4 0  9992,2 53793  53.2153 236.4959 0000277  83.5475 276.5549 15.08837136 37565,6917.889,95.438,539.946,539.563,0.0
53793.0,STARLINK-4728,PAYLOAD,2023-05-10 13:52:12,15.08841007,5.42e-05,53.2157,236.1989,45.579,314.5247,0.00014948,2.092e-05,0.0,0 STARLINK-4728,1 53793U 22111W   23130.57791734  .00002092  00000-0  14948-3 0  9998,2 53793  53.2157 236.1989 0000542  45.5790 314.5247 15.08841007 37573,6917.877,95.437,540.117,539.367,0.0
53793.0,STARLINK-4728,PAYLOAD,2023-05-11 10:32:12,15.08844193,3.07e-05,53.2157,232.3322,110.6646,249.4379,8.2253e-05,1.022e-05,0.0,0 STARLINK-4728,1 53793U 22111W   23131.43903541  .00001022  00000-0  82253-4 0  9992,2 53793  53.2157 232.3322 0000307 110.6646 249.4379 15.08844193 37701,6917.868,95.437,539.945,539.52,0.0
53793.0,STARLINK-4728,PAYLOAD,2023-05-11 12:07:35,15.08846384,3.19e-05,53.216,232.034,91.23,268.8729,0.00011615,1.562e-05,0.0,0 STARLINK-4728,1 53793U 22111W   23131.50527278  .00001562  00000-0  11615-3 0  9991,2 53793  53.2160 232.0340 0000319  91.2300 268.8729 15.08846384 37715,6917.861,95.437,539.947,539.505,0.0
53793.0,STARLINK-4728,PAYLOAD,2023-05-13 13:24:33,15.08838932,4.72e-05,53.2156,222.8182,99.154,260.9506,0.00047445,7.271e-05,0.0,0 STARLINK-4728,1 53793U 22111W   23133.55871819  .00007271  00000-0  47445-3 0  9994,2 53793  53.2156 222.8182 0000472  99.1540 260.9506 15.08838932 37226,6917.884,95.438,540.075,539.422,0.0
53793.0,STARLINK-4728,PAYLOAD,2023-05-13 18:10:41,15.08856813,3.22e-05,53.2155,221.9257,101.1538,258.949,0.00032838,4.945e-05,0.0,0 STARLINK-4728,1 53793U 22111W   23133.75742770  .00004945  00000-0  32838-3 0  9994,2 53793  53.2155 221.9257 0000322 101.1538 258.9490 15.08856813 38052,6917.829,95.436,539.917,539.471,0.0
53793.0,STARLINK-4728,PAYLOAD,2023-05-14 13:15:20,15.08840391,4.97e-05,53.2151,218.3578,80.7369,279.3679,0.00036726,5.562e-05,0.0,0 STARLINK-4728,1 53793U 22111W   23134.55231885  .00005562  00000-0  36726-3 0  9999,2 53793  53.2151 218.3578 0000497  80.7369 279.3679 15.08840391 37375,6917.879,95.438,540.088,539.4,0.0
53793.0,STARLINK-4728,PAYLOAD,2023-05-14 16:26:06,15.08844008,5.05e-05,53.2151,217.7631,80.9153,279.1896,0.000582,8.988e-05,0.0,0 STARLINK-4728,1 53793U 22111W   23134.68479874  .00008988  00000-0  58200-3 0  9991,2 53793  53.2151 217.7631 0000505  80.9153 279.1896 15.08844008 38190,6917.868,95.437,540.082,539.384,0.0
53793.0,STARLINK-4728,PAYLOAD,2023-05-15 05:09:12,15.08835842,5.5e-05,53.215,215.3841,82.3566,277.7489,0.00052575,8.089e-05,0.0,0 STARLINK-4728,1 53793U 22111W   23135.21472416  .00008089  00000-0  52575-3 0  9997,2 53793  53.2150 215.3841 0000550  82.3566 277.7489 15.08835842 37478,6917.893,95.438,540.139,539.378,0.0
53793.0,STARLINK-4728,PAYLOAD,2023-05-15 11:30:44,15.08842078,5.25e-05,53.2152,214.1944,82.7656,277.3396,0.00047038,7.207e-05,0.0,0 STARLINK-4728,1 53793U 22111W   23135.47968317  .00007207  00000-0  47038-3 0  9994,2 53793  53.2152 214.1944 0000525  82.7656 277.3396 15.08842078 38313,6917.874,95.437,540.102,539.376,0.0
53793.0,STARLINK-4728,PAYLOAD,2023-05-15 14:41:30,15.08844793,5.53e-05,53.2152,213.5998,79.4498,280.6556,0.00057454,8.869e-05,0.0,0 STARLINK-4728,1 53793U 22111W   23135.61216302  .00008869  00000-0  57454-3 0  9998,2 53793  53.2152 213.5998 0000553  79.4498 280.6556 15.08844793 38336,6917.866,95.437,540.113,539.348,0.0
53793.0,STARLINK-4728,PAYLOAD,2023-05-16 08:10:45,15.08841079,5.73e-05,53.2154,210.3288,74.1493,285.9562,0.00025439,3.763e-05,0.0,0 STARLINK-4728,1 53793U 22111W   23136.34080550  .00003763  00000-0  25439-3 0  9999,2 53793  53.2154 210.3288 0000573  74.1493 285.9562 15.08841079 37646,6917.877,95.437,540.138,539.346,0.0
53793.0,STARLINK-4728,PAYLOAD,2023-05-16 12:56:54,15.08844278,5.59e-05,53.2155,209.4365,75.1298,284.9756,0.00028587,4.265e-05,0.0,0 STARLINK-4728,1 53793U 22111W   23136.53952412  .00004265  00000-0  28587-3 0  9990,2 53793  53.2155 209.4365 0000559  75.1298 284.9756 15.08844278 38470,6917.867,95.437,540.119,539.346,0.0
